ORBCOMM FM37            
1 33064U 08031E   25304.60002674  .00002916  00000+0  40573-3 0  9996
2 33064  48.4394  54.8810 0005909 244.5725 238.6561 14.80344875934256
ORBCOMM FM40            
1 33065U 08031F   25304.63803559  .00003542  00000+0  45977-3 0  9990
2 33065  48.4418  36.3842 0007052 259.1410 239.4347 14.82773507934406
VESSELSAT 1             
1 37840U 11058C   25304.48036950  .00000418  00000+0  83399-4 0  9994
2 37840  19.9634 349.1572 0013468 245.6186 114.2813 14.11384977725583
ORBCOMM FM109           
1 40086U 14040A   25304.66563539  .00000930  00000+0  23507-3 0  9995
2 40086  47.0026  91.6222 0002249 247.6577 112.4071 14.58423772600988
ORBCOMM FM107           
1 40087U 14040B   25304.68715678  .00001043  00000+0  25879-3 0  9991
2 40087  47.0043  92.4277 0001494 207.2690 152.8117 14.58501011601068
ORBCOMM FM106           
1 40088U 14040C   25304.61120462  .00001880  00000+0  34202-3 0  9995
2 40088  47.0592 263.9125 0017163 338.6503  21.3671 14.69850524603545
ORBCOMM FM111           
1 40089U 14040D   25304.57404847  .00004295  00000+0  49120-3 0  9991
2 40089  46.9996  95.6081 0028744 127.8335 232.5170 14.87280360610522
ORBCOMM FM104           
1 40090U 14040E   25304.55194958  .00000837  00000+0  22237-3 0  9998
2 40090  47.0031 128.3258 0015902 109.1188 251.1420 14.56890311600508
